{
    "links": {
        "self": "http://www.neowsapp.com/rest/v1/neo/3770321?api_key=iIulBulltgU6a56xZRHN4H3l9WmuAYTsLGpBGhQ2"
    },
    "id": "3770321",
    "neo_reference_id": "3770321",
    "name": "(2017 EF)",
    "designation": "2017 EF",
    "nasa_jpl_url": "http://ssd.jpl.nasa.gov/sbdb.cgi?sstr=3770321",
    "absolute_magnitude_h": 27.2,
    "estimated_diameter": {
        "kilometers": {
            "estimated_diameter_min": 0.0096506147,
            "estimated_diameter_max": 0.0215794305
        },
        "meters": {
            "estimated_diameter_min": 9.6506146958,
            "estimated_diameter_max": 21.5794304844
        },
        "miles": {
            "estimated_diameter_min": 0.0059966121,
            "estimated_diameter_max": 0.0134088323
        },
        "feet": {
            "estimated_diameter_min": 31.6621227185,
            "estimated_diameter_max": 70.7986587106
        }
    },
    "is_potentially_hazardous_asteroid": false,
    "close_approach_data": [
        {
            "close_approach_date": "1903-12-17",
            "close_approach_date_full": "1903-Dec-17 12:01",
            "epoch_date_close_approach": -2084097540000,
            "relative_velocity": {
                "kilometers_per_second": "9.7489351926",
                "kilometers_per_hour": "35096.1666932832",
                "miles_per_hour": "21807.3931322792"
            },
            "miss_distance": {
                "astronomical": "1.4625182682",
                "lunar": "568.9196063298",
                "kilometers": "218789617.758808734",
                "miles": "135949564.4102551692"
            },
            "orbiting_body": "Juptr"
        },
        {
            "close_approach_date": "2011-01-09",
            "close_approach_date_full": "2011-Jan-09 19:19",
            "epoch_date_close_approach": 1294600740000,
            "relative_velocity": {
                "kilometers_per_second": "9.5744228835",
                "kilometers_per_hour": "34467.9223807083",
                "miles_per_hour": "21417.0265481684"
            },
            "miss_distance": {
                "astronomical": "1.4267031986",
                "lunar": "554.9875442554",
                "kilometers": "213431759.632746982",
                "miles": "132620345.7486410716"
            },
            "orbiting_body": "Juptr"
        },
        {
            "close_approach_date": "2017-03-07",
            "close_approach_date_full": "2017-Mar-07 07:00",
            "epoch_date_close_approach": 1488870000000,
            "relative_velocity": {
                "kilometers_per_second": "9.5297746523",
                "kilometers_per_hour": "34307.1887482987",
                "miles_per_hour": "21317.1529197415"
            },
            "miss_distance": {
                "astronomical": "0.0190846413",
                "lunar": "7.4239254657",
                "kilometers": "2855021.688194031",
                "miles": "1774028.2142623878"
            },
            "orbiting_body": "Earth"
        },
        {
            "close_approach_date": "2117-08-25",
            "close_approach_date_full": "2117-Aug-25 02:57",
            "epoch_date_close_approach": 4659303420000,
            "relative_velocity": {
                "kilometers_per_second": "11.2632133563",
                "kilometers_per_hour": "40547.568082694",
                "miles_per_hour": "25194.6819567162"
            },
            "miss_distance": {
                "astronomical": "1.9016130908",
                "lunar": "739.7274923212",
                "kilometers": "284477267.947796596",
                "miles": "176765977.5554651848"
            },
            "orbiting_body": "Juptr"
        }
    ],
    "orbital_data": {
        "orbit_id": "3",
        "orbit_determination_date": "2017-04-06 08:19:45",
        "first_observation_date": "2017-02-27",
        "last_observation_date": "2017-03-04",
        "data_arc_in_days": 5,
        "observations_used": 26,
        "orbit_uncertainty": "7",
        "minimum_orbit_intersection": ".0123194",
        "jupiter_tisserand_invariant": "2.981",
        "epoch_osculation": "2459000.5",
        "eccentricity": ".6440583653933341",
        "semi_major_axis": "2.793977219704769",
        "inclination": "3.987820515923204",
        "ascending_node_longitude": "164.7697263516921",
        "orbital_period": "1705.818099352709",
        "perihelion_distance": ".9944928186355032",
        "perihelion_argument": "19.11247417073869",
        "aphelion_distance": "4.593461620774034",
        "perihelion_time": "2459538.068525760158",
        "mean_anomaly": "246.5502310316135",
        "mean_motion": ".2110424318610559",
        "equinox": "J2000",
        "orbit_class": {
            "orbit_class_type": "APO",
            "orbit_class_description": "Near-Earth asteroid orbits which cross the Earth’s orbit similar to that of 1862 Apollo",
            "orbit_class_range": "a (semi-major axis) > 1.0 AU; q (perihelion) < 1.017 AU"
        }
    },
    "is_sentry_object": false
}